[{"OBJECT_NAME":"STARLINK-31770","OBJECT_ID":"2024-080A","EPOCH":"2026-03-09T21:55:59.602656","MEAN_MOTION":15.27574324,"ECCENTRICITY":0.00013087,"INCLINATION":43.0045,"RA_OF_ASC_NODE":36.9282,"ARG_OF_PERICENTER":290.5705,"MEAN_ANOMALY":69.5007,"EPHEMERIS_TYPE":0,"CLASSIFICATION_TYPE":"U","NORAD_CAT_ID":59601,"ELEMENT_SET_NO":999,"REV_AT_EPOCH":10577,"BSTAR":5.6032741e-5,"MEAN_MOTION_DOT":1.28e-5,"MEAN_MOTION_DDOT":0},{"OBJECT_NAME":"FLOCK 4G-2","OBJECT_ID":"2025-009BE","EPOCH":"2026-03-09T15:53:23.273952","MEAN_MOTION":15.2767526,"ECCENTRICITY":0.00031811,"INCLINATION":97.4044,"RA_OF_ASC_NODE":151.2221,"ARG_OF_PERICENTER":329.2677,"MEAN_ANOMALY":30.8376,"EPHEMERIS_TYPE":0,"CLASSIFICATION_TYPE":"U","NORAD_CAT_ID":62661,"ELEMENT_SET_NO":999,"REV_AT_EPOCH":12132,"BSTAR":0.00051068481,"MEAN_MOTION_DOT":0.00013752,"MEAN_MOTION_DDOT":0}]
